[{"OBJECT_NAME":"ION SCV-012","OBJECT_ID":"2024-149DK","EPOCH":"2026-03-09T18:21:23.444352","MEAN_MOTION":14.9470579,"ECCENTRICITY":0.00046179,"INCLINATION":97.6849,"RA_OF_ASC_NODE":144.865,"ARG_OF_PERICENTER":66.6565,"MEAN_ANOMALY":293.5141,"EPHEMERIS_TYPE":0,"CLASSIFICATION_TYPE":"U","NORAD_CAT_ID":60573,"ELEMENT_SET_NO":999,"REV_AT_EPOCH":8506,"BSTAR":0.00018031368,"MEAN_MOTION_DOT":1.901e-5,"MEAN_MOTION_DDOT":0},{"OBJECT_NAME":"ORBCOMM FM02","OBJECT_ID":"1995-017B","EPOCH":"2026-03-09T15:14:02.878656","MEAN_MOTION":14.96738099,"ECCENTRICITY":0.0008676,"INCLINATION":69.9626,"RA_OF_ASC_NODE":148.0696,"ARG_OF_PERICENTER":276.2558,"MEAN_ANOMALY":83.7611,"EPHEMERIS_TYPE":0,"CLASSIFICATION_TYPE":"U","NORAD_CAT_ID":23546,"ELEMENT_SET_NO":999,"REV_AT_EPOCH":65179,"BSTAR":0.00080978,"MEAN_MOTION_DOT":9.2e-5,"MEAN_MOTION_DDOT":0}]
